OBJECT_NAME,OBJECT_ID,EPOCH,MEAN_MOTION,ECCENTRICITY,INCLINATION,RA_OF_ASC_NODE,ARG_OF_PERICENTER,MEAN_ANOMALY,EPHEMERIS_TYPE,CLASSIFICATION_TYPE,NORAD_CAT_ID,ELEMENT_SET_NO,REV_AT_EPOCH,BSTAR,MEAN_MOTION_DOT,MEAN_MOTION_DDOT
STARLINK-5909,2023-037AA,2026-07-22T16:54:36.290016,14.98331978,.0003228,69.9996,304.0551,269.9480,90.1309,0,U,55938,999,18420,.26990406E-4,.229E-5,0
STARLINK-5918,2023-037AB,2026-07-22T16:42:35.650080,14.98334482,.00033448,70.0001,304.0264,265.5347,94.5430,0,U,55939,999,18420,.12476301E-3,.1396E-4,0
STARLINK-5864,2023-037AC,2026-07-22T13:36:19.461024,14.98332366,.00034723,70.0000,304.3782,269.4293,90.6468,0,U,55940,999,18418,.35350642E-4,.329E-5,0
STARLINK-5914,2023-037AD,2026-07-22T07:47:51.251136,14.98332187,.00031056,69.9999,305.1404,269.7695,90.3108,0,U,55941,999,18414,.3362161E-5,-.53E-6,0
STARLINK-5917,2023-037AE,2026-07-22T16:12:31.821984,14.98331492,.00034249,70.0003,303.9540,268.5404,91.5363,0,U,55942,999,18420,.11720815E-4,.47E-6,0
STARLINK-5932,2023-037AF,2026-07-22T16:24:32.960448,14.98331722,.000342,70.0000,303.9736,268.8257,91.2511,0,U,55943,999,18420,.37767199E-4,.358E-5,0
STARLINK-5926,2023-037AG,2026-07-22T16:18:32.489280,14.98331526,.00032144,70.0000,303.9683,268.5127,91.5664,0,U,55944,999,18420,.13533981E-4,.68E-6,0
STARLINK-5925,2023-037AH,2026-07-22T08:30:07.889472,14.98329538,.00034678,69.9997,304.8394,267.7671,92.3091,0,U,55945,999,18415,.484006E-6,-.87E-6,0
STARLINK-5857,2023-037AJ,2026-07-22T16:30:33.654528,14.98332157,.00034143,70.0000,303.9966,269.6063,90.4705,0,U,55946,999,18419,.3397279E-4,.312E-5,0
STARLINK-5900,2023-037AL,2026-07-22T11:59:52.141056,14.98332709,.00032755,69.9998,284.6666,269.7265,90.3518,0,U,55948,999,18466,.43481608E-4,.426E-5,0
STARLINK-5899,2023-037AM,2026-07-22T15:24:09.494784,14.98332611,.00034305,69.9994,284.3593,269.6518,90.4248,0,U,55949,999,18468,.46016567E-4,.456E-5,0
STARLINK-5911,2023-037AN,2026-07-22T11:53:51.565344,14.98329673,.00036411,69.9994,284.6523,266.6711,93.4031,0,U,55950,999,18466,.998802E-5,.26E-6,0
STARLINK-5908,2023-037AP,2026-07-22T16:06:31.178880,14.98330441,.00034699,70.0000,303.9387,266.5453,93.5309,0,U,55951,999,18420,-.25995995E-4,-.403E-5,0
STARLINK-5893,2023-037AQ,2026-07-22T12:00:06.476544,14.98330984,.00035176,69.9996,284.6687,268.7408,91.3348,0,U,55952,999,18466,.2423394E-4,.196E-5,0
STARLINK-5892,2023-037AS,2026-07-22T16:06:11.718144,14.98332452,.00033725,69.9992,284.0570,269.6034,90.4739,0,U,55954,999,18469,.1974805E-4,.143E-5,0
STARLINK-5878,2023-037AT,2026-07-22T11:41:50.161632,14.98332799,.00032829,69.9996,284.6220,268.8246,91.2537,0,U,55955,999,18466,.16636332E-4,.105E-5,0
STARLINK-5883,2023-037AU,2026-07-22T14:18:02.272032,14.98332744,.00034923,69.9989,284.1957,269.0959,90.9800,0,U,55956,999,18468,.11170318E-4,.4E-6,0
STARLINK-5884,2023-037AV,2026-07-22T15:00:07.159104,14.98329432,.00035779,69.9991,284.2996,266.4066,93.6684,0,U,55957,999,18468,.7923861E-5,.1E-7,0
STARLINK-5928,2023-037AW,2026-07-22T16:24:15.141312,14.98332947,.00039207,69.9974,284.1004,261.6795,98.3920,0,U,55958,999,18469,-.91437881E-4,-.1184E-4,0
STARLINK-5929,2023-037AX,2026-07-22T08:17:32.762112,14.98332083,.0003577,69.9993,284.9285,268.8731,91.2018,0,U,55959,999,18464,.18618609E-4,.129E-5,0
STARLINK-5938,2023-037AY,2026-07-22T15:00:20.977056,14.98333222,.00031659,69.9992,284.2820,269.0787,91.0010,0,U,55960,999,18468,.40528553E-4,.391E-5,0
STARLINK-5933,2023-037AZ,2026-07-22T16:00:10.990368,14.98331831,.00035277,69.9990,284.0420,267.9734,92.1022,0,U,55961,999,18469,.3135734E-4,.281E-5,0
STARLINK-5906,2023-037BA,2026-07-22T15:18:08.830944,14.98332324,.00035724,69.9993,284.3383,268.9872,91.0878,0,U,55962,999,18468,.43179131E-4,.422E-5,0
STARLINK-5924,2023-037BB,2026-07-22T16:12:12.165984,14.98336655,.0003763,69.9995,284.0723,269.2939,90.7789,0,U,55963,999,18469,-.3691824E-5,-.137E-5,0
STARLINK-5895,2023-037BC,2026-07-22T21:55:34.311648,15.11533020,.00005596,69.9947,273.6393,163.3184,196.8001,0,U,55964,999,18497,.69434648E-3,.11707E-3,0
STARLINK-5894,2023-037BD,2026-07-22T15:48:09.634176,14.98332687,.00036613,69.9988,284.0123,266.5740,93.5001,0,U,55965,999,18469,.5082015E-5,-.32E-6,0
SES-18,2023-038A,2026-07-22T14:15:09.822816,1.00272276,.0001024,0.0611,261.0548,286.5759,223.3921,0,U,55970,999,1245,0,-.97E-6,0
SES-19,2023-038B,2026-07-22T15:48:51.638400,1.00274034,.00018895,0.0406,274.7653,207.4319,280.5179,0,U,55971,999,1244,0,.91E-6,0
TIANMU-1 03,2023-039A,2026-07-22T22:21:29.403648,15.48212013,.00019406,97.5251,19.3294,356.0708,4.0526,0,U,55973,999,18636,.32694542E-3,.17131E-3,0
TIANMU-1 04,2023-039B,2026-07-22T21:45:54.082944,15.48843467,.00022632,97.5190,18.4609,341.6628,18.4540,0,U,55974,999,18637,.33638057E-3,.18024E-3,0
