{"epoch":1784799577,"count":18318,"objects":[{"id":"55938","name":"STARLINK-5909","type":"PAYLOAD","l1":"1 55938U 23037AA  26203.70458669  .00000229  00000-0  26990-4 0  9996","l2":"2 55938  69.9996 304.0551 0003228 269.9480  90.1309 14.98331978184201"},{"id":"55939","name":"STARLINK-5918","type":"PAYLOAD","l1":"1 55939U 23037AB  26203.69624595  .00001396  00000-0  12476-3 0  9997","l2":"2 55939  70.0001 304.0264 0003345 265.5347  94.5430 14.98334482184203"},{"id":"55940","name":"STARLINK-5864","type":"PAYLOAD","l1":"1 55940U 23037AC  26203.56689191  .00000329  00000-0  35351-4 0  9991","l2":"2 55940  70.0000 304.3782 0003472 269.4293  90.6468 14.98332366184180"},{"id":"55941","name":"STARLINK-5914","type":"PAYLOAD","l1":"1 55941U 23037AD  26203.32489874 -.00000053  00000-0  33622-5 0  9997","l2":"2 55941  69.9999 305.1404 0003106 269.7695  90.3108 14.98332187184143"},{"id":"55942","name":"STARLINK-5917","type":"PAYLOAD","l1":"1 55942U 23037AE  26203.67536831  .00000047  00000-0  11721-4 0  9999","l2":"2 55942  70.0003 303.9540 0003425 268.5404  91.5363 14.98331492184200"},{"id":"55943","name":"STARLINK-5932","type":"PAYLOAD","l1":"1 55943U 23037AF  26203.68371482  .00000358  00000-0  37767-4 0  9993","l2":"2 55943  70.0000 303.9736 0003420 268.8257  91.2511 14.98331722184207"},{"id":"55944","name":"STARLINK-5926","type":"PAYLOAD","l1":"1 55944U 23037AG  26203.67954270  .00000068  00000-0  13534-4 0  9999","l2":"2 55944  70.0000 303.9683 0003214 268.5127  91.5664 14.98331526184207"},{"id":"55945","name":"STARLINK-5925","type":"PAYLOAD","l1":"1 55945U 23037AH  26203.35425798 -.00000087  00000-0  48401-6 0  9998","l2":"2 55945  69.9997 304.8394 0003468 267.7671  92.3091 14.98329538184152"},{"id":"55946","name":"STARLINK-5857","type":"PAYLOAD","l1":"1 55946U 23037AJ  26203.68788952  .00000312  00000-0  33973-4 0  9995","l2":"2 55946  70.0000 303.9966 0003414 269.6063  90.4705 14.98332157184199"},{"id":"55948","name":"STARLINK-5900","type":"PAYLOAD","l1":"1 55948U 23037AL  26203.49990904  .00000426  00000-0  43482-4 0  9990","l2":"2 55948  69.9998 284.6666 0003276 269.7265  90.3518 14.98332709184663"},{"id":"55949","name":"STARLINK-5899","type":"PAYLOAD","l1":"1 55949U 23037AM  26203.64177656  .00000456  00000-0  46017-4 0  9999","l2":"2 55949  69.9994 284.3593 0003430 269.6518  90.4248 14.98332611184683"},{"id":"55950","name":"STARLINK-5911","type":"PAYLOAD","l1":"1 55950U 23037AN  26203.49573571  .00000026  00000-0  99880-5 0  9990","l2":"2 55950  69.9994 284.6523 0003641 266.6711  93.4031 14.98329673184662"},{"id":"55951","name":"STARLINK-5908","type":"PAYLOAD","l1":"1 55951U 23037AP  26203.67119420 -.00000403  00000-0 -25996-4 0  9997","l2":"2 55951  70.0000 303.9387 0003470 266.5453  93.5309 14.98330441184203"},{"id":"55952","name":"STARLINK-5893","type":"PAYLOAD","l1":"1 55952U 23037AQ  26203.50007496  .00000196  00000-0  24234-4 0  9990","l2":"2 55952  69.9996 284.6687 0003518 268.7408  91.3348 14.98330984184661"},{"id":"55954","name":"STARLINK-5892","type":"PAYLOAD","l1":"1 55954U 23037AS  26203.67096896  .00000143  00000-0  19748-4 0  9998","l2":"2 55954  69.9992 284.0570 0003373 269.6034  90.4739 14.98332452184697"},{"id":"55955","name":"STARLINK-5878","type":"PAYLOAD","l1":"1 55955U 23037AT  26203.48738613  .00000105  00000-0  16636-4 0  9999","l2":"2 55955  69.9996 284.6220 0003283 268.8246  91.2537 14.98332799184662"},{"id":"55956","name":"STARLINK-5883","type":"PAYLOAD","l1":"1 55956U 23037AU  26203.59585963  .00000040  00000-0  11170-4 0  9996","l2":"2 55956  69.9989 284.1957 0003492 269.0959  90.9800 14.98332744184684"},{"id":"55957","name":"STARLINK-5884","type":"PAYLOAD","l1":"1 55957U 23037AV  26203.62508286  .00000001  00000-0  79239-5 0  9992","l2":"2 55957  69.9991 284.2996 0003578 266.4066  93.6684 14.98329432184687"},{"id":"55958","name":"STARLINK-5928","type":"PAYLOAD","l1":"1 55958U 23037AW  26203.68350858 -.00001184  00000-0 -91438-4 0  9998","l2":"2 55958  69.9974 284.1004 0003921 261.6795  98.3920 14.98332947184697"},{"id":"55959","name":"STARLINK-5929","type":"PAYLOAD","l1":"1 55959U 23037AX  26203.34551808  .00000129  00000-0  18619-4 0  9996","l2":"2 55959  69.9993 284.9285 0003577 268.8731  91.2018 14.98332083184640"},{"id":"55960","name":"STARLINK-5938","type":"PAYLOAD","l1":"1 55960U 23037AY  26203.62524279  .00000391  00000-0  40529-4 0  9997","l2":"2 55960  69.9992 284.2820 0003166 269.0787  91.0010 14.98333222184687"},{"id":"55961","name":"STARLINK-5933","type":"PAYLOAD","l1":"1 55961U 23037AZ  26203.66679387  .00000281  00000-0  31357-4 0  9990","l2":"2 55961  69.9990 284.0420 0003528 267.9734  92.1022 14.98331831184691"},{"id":"55962","name":"STARLINK-5906","type":"PAYLOAD","l1":"1 55962U 23037BA  26203.63760221  .00000422  00000-0  43179-4 0  9998","l2":"2 55962  69.9993 284.3383 0003572 268.9872  91.0878 14.98332324184683"},{"id":"55963","name":"STARLINK-5924","type":"PAYLOAD","l1":"1 55963U 23037BB  26203.67514081 -.00000137  00000-0 -36918-5 0  9993","l2":"2 55963  69.9995 284.0723 0003763 269.2939  90.7789 14.98336655184690"},{"id":"55964","name":"STARLINK-5895","type":"PAYLOAD","l1":"1 55964U 23037BC  26203.91359157  .00011707  00000-0  69435-3 0  9993","l2":"2 55964  69.9947 273.6393 0000560 163.3184 196.8001 15.11533020184970"},{"id":"55965","name":"STARLINK-5894","type":"PAYLOAD","l1":"1 55965U 23037BD  26203.65844484 -.00000032  00000-0  50820-5 0  9997","l2":"2 55965  69.9988 284.0123 0003661 266.5740  93.5001 14.98332687184694"},{"id":"55970","name":"SES 18","type":"PAYLOAD","l1":"1 55970U 23038A   26203.59386369 -.00000097  00000-0  00000-0 0  9991","l2":"2 55970   0.0611 261.0548 0001024 286.5759 223.3921  1.00272276 12452"},{"id":"55971","name":"SES 19","type":"PAYLOAD","l1":"1 55971U 23038B   26203.65893100  .00000091  00000-0  00000-0 0  9998","l2":"2 55971   0.0406 274.7653 0001890 207.4319 280.5179  1.00274034 12441"},{"id":"55973","name":"TIANMU-1 03","type":"PAYLOAD","l1":"1 55973U 23039A   26203.93159032  .00017131  00000-0  32695-3 0  9992","l2":"2 55973  97.5251  19.3294 0001941 356.0708   4.0526 15.48212013186360"},{"id":"55974","name":"TIANMU-1 04","type":"PAYLOAD","l1":"1 55974U 23039B   26203.90687596  .00018024  00000-0  33638-3 0  9991","l2":"2 55974  97.5190  18.4609 0002263 341.6628  18.4540 15.48843467186371"}]}